LYNK TOWER 4            
1 55034U 23001AB  26068.67743801  .00009160  00000+0  30014-3 0  9997
2 55034  97.3324 128.5940 0010321 112.3386 247.8950 15.31819885176588
STARLINK-33554          
1 62103U 24220R   26068.42117684  .00026001  00000+0  95059-3 0  9996
2 62103  43.0014 206.7569 0001556 178.2711 181.8146 15.27596170 72916
