[{"OBJECT_NAME":"LYNK TOWER 4","OBJECT_ID":"2023-001AB","EPOCH":"2026-03-09T16:15:30.644928","MEAN_MOTION":15.31819885,"ECCENTRICITY":0.00103213,"INCLINATION":97.3324,"RA_OF_ASC_NODE":128.594,"ARG_OF_PERICENTER":112.3386,"MEAN_ANOMALY":247.895,"EPHEMERIS_TYPE":0,"CLASSIFICATION_TYPE":"U","NORAD_CAT_ID":55034,"ELEMENT_SET_NO":999,"REV_AT_EPOCH":17658,"BSTAR":0.00030013829,"MEAN_MOTION_DOT":9.16e-5,"MEAN_MOTION_DDOT":0},{"OBJECT_NAME":"STARLINK-33554","OBJECT_ID":"2024-220R","EPOCH":"2026-03-09T10:06:29.678976","MEAN_MOTION":15.2759617,"ECCENTRICITY":0.00015562,"INCLINATION":43.0014,"RA_OF_ASC_NODE":206.7569,"ARG_OF_PERICENTER":178.2711,"MEAN_ANOMALY":181.8146,"EPHEMERIS_TYPE":0,"CLASSIFICATION_TYPE":"U","NORAD_CAT_ID":62103,"ELEMENT_SET_NO":999,"REV_AT_EPOCH":7291,"BSTAR":0.00095058717,"MEAN_MOTION_DOT":0.00026001,"MEAN_MOTION_DDOT":0}]
